CS1                     
1 49261U 21088B   26068.75173904  .00015722  00000+0  51176-3 0  9998
2 49261  97.3882 132.1684 0014129  78.0335 282.2490 15.31848439245182
STARLINK-30256          
1 57522U 23115B   26068.20523495 -.00005369  00000+0 -19069-3 0  9997
2 57522  43.0014   4.6316 0001742 264.2228  95.8424 15.26726159142277
